ALOS-4 (DAICHI-4)       
1 60182U 24123A   24237.57400757  .00005196  00000+0  70206-3 0  9990
2 60182  97.9211 333.2537 0001517 100.8565 259.2817 14.79479854  8058
